ONEWEB-0512             
1 54130U 22138T   25363.47871441  .00000033  00000+0  51271-4 0  9999
2 54130  87.9210 338.7434 0002025  75.8492 284.2866 13.19726563154423
ONEWEB-0513             
1 54131U 22138U   25363.47769110 -.00000004  00000+0 -42037-4 0  9999
2 54131  87.9221 338.7034 0002572  73.1272 287.0143 13.20260990154323
ONEWEB-0514             
1 54132U 22138V   25362.96380079  .00000069  00000+0  14124-3 0  9990
2 54132  87.9223 338.8328 0001853  89.5605 270.5740 13.19725815154370
ONEWEB-0515             
1 54133U 22138W   25363.34790455  .00000140  00000+0  31327-3 0  9991
2 54133  87.9225 308.2973 0001029  97.6109 262.5141 13.20771712156887
ONEWEB-0516             
1 54134U 22138X   25363.46923676  .00000019  00000+0  16277-4 0  9991
2 54134  87.9204 338.7493 0001716  79.8207 280.3119 13.19726246154447
ONEWEB-0517             
1 54135U 22138Y   25363.37289157  .00000053  00000+0  10078-3 0  9991
2 54135  87.9221 338.7513 0002029  87.8910 272.2455 13.19725342154436
ONEWEB-0519             
1 54137U 22138AA  25363.34129443  .00000101  00000+0  22033-3 0  9999
2 54137  87.9216 338.7479 0002034  86.1514 273.9851 13.19727802154432
